[{"OBJECT_NAME":"STARLINK-30783","OBJECT_ID":"2023-162N","EPOCH":"2026-03-09T05:15:40.575168","MEAN_MOTION":15.2756185,"ECCENTRICITY":5.79e-5,"INCLINATION":43.0004,"RA_OF_ASC_NODE":131.8664,"ARG_OF_PERICENTER":38.3391,"MEAN_ANOMALY":321.7502,"EPHEMERIS_TYPE":0,"CLASSIFICATION_TYPE":"U","NORAD_CAT_ID":58130,"ELEMENT_SET_NO":999,"REV_AT_EPOCH":13227,"BSTAR":0.00034331605,"MEAN_MOTION_DOT":9.192e-5,"MEAN_MOTION_DDOT":0},{"OBJECT_NAME":"NOAA 17 DEB","OBJECT_ID":"2002-032AF","EPOCH":"2026-03-09T00:24:06.552000","MEAN_MOTION":15.25501717,"ECCENTRICITY":0.00030847,"INCLINATION":98.6472,"RA_OF_ASC_NODE":92.5947,"ARG_OF_PERICENTER":165.9893,"MEAN_ANOMALY":194.1428,"EPHEMERIS_TYPE":0,"CLASSIFICATION_TYPE":"U","NORAD_CAT_ID":48614,"ELEMENT_SET_NO":999,"REV_AT_EPOCH":26420,"BSTAR":0.01090047,"MEAN_MOTION_DOT":0.00286783,"MEAN_MOTION_DDOT":0}]
